STARLINK-1470           
1 45772U 20038AU  26068.60892913  .00054678  00000+0  19687-2 0  9990
2 45772  53.0480 174.6971 0002444  12.8687 347.2373 15.28074860317065
STARLINK-35276          
1 66009U 25232E   26068.47858778  .00023737  00000+0  81125-3 0  9992
2 66009  53.1595 104.8659 0001311  88.4252 271.6899 15.30190511 23383
