[{"OBJECT_NAME":"STARLINK-1470","OBJECT_ID":"2020-038AU","EPOCH":"2026-03-09T14:36:51.476832","MEAN_MOTION":15.2807486,"ECCENTRICITY":0.0002444,"INCLINATION":53.048,"RA_OF_ASC_NODE":174.6971,"ARG_OF_PERICENTER":12.8687,"MEAN_ANOMALY":347.2373,"EPHEMERIS_TYPE":0,"CLASSIFICATION_TYPE":"U","NORAD_CAT_ID":45772,"ELEMENT_SET_NO":999,"REV_AT_EPOCH":31706,"BSTAR":0.0019687,"MEAN_MOTION_DOT":0.00054678,"MEAN_MOTION_DDOT":0},{"OBJECT_NAME":"STARLINK-35276","OBJECT_ID":"2025-232E","EPOCH":"2026-03-09T11:29:09.984192","MEAN_MOTION":15.30190511,"ECCENTRICITY":0.00013119,"INCLINATION":53.1595,"RA_OF_ASC_NODE":104.8659,"ARG_OF_PERICENTER":88.4252,"MEAN_ANOMALY":271.6899,"EPHEMERIS_TYPE":0,"CLASSIFICATION_TYPE":"U","NORAD_CAT_ID":66009,"ELEMENT_SET_NO":999,"REV_AT_EPOCH":2338,"BSTAR":0.0008112497,"MEAN_MOTION_DOT":0.00023737,"MEAN_MOTION_DDOT":0}]
